LEMUR-1                 
1 40044U 14033AL  26171.39295448  .00001537  00000+0  18153-3 0  9990
2 40044  97.7881 321.1267 0049556  68.4036 292.2449 14.85256873645941
LEMUR-2-GREENBERG       
1 42837U 17042N   26171.41952476  .00013958  00000+0  46185-3 0  9995
2 42837  97.3826 352.0289 0008186   2.1847 357.9428 15.31413026488885
LEMUR-2-ANDIS           
1 42838U 17042P   26171.44139741  .00018321  00000+0  54159-3 0  9990
2 42838  97.3675 352.2452 0007828   0.5709 359.5541 15.34952351488957
LEMUR-2-MONSON          
1 42839U 17042Q   26171.43531600  .00012809  00000+0  46988-3 0  9996
2 42839  97.4086 352.0120 0005902 354.0746   6.0422 15.28086186488661
LEMUR-2-FURIAUS         
1 42840U 17042R   26171.41558632  .00014883  00000+0  50879-3 0  9998
2 42840  97.3779 349.9730 0007991  59.1132 301.0893 15.30342715488706
LEMUR-2-PETERG          
1 42841U 17042S   26170.97095652  .00018094  00000+0  55217-3 0  9996
2 42841  97.3995 356.0050 0002985 345.2222  14.8933 15.33975062488869
LEMUR-2-DEMBITZ         
1 42842U 17042T   26171.43538378  .00014378  00000+0  49126-3 0  9999
2 42842  97.3831 353.0189 0006451  18.0066 342.1402 15.30378926488841
LEMUR-2-ZACHARY         
1 42845U 17042W   26170.96538516  .00040236  00000+0  70521-3 0  9998
2 42845  97.3597   2.6609 0002667  21.5962 338.5401 15.50470213489636
LEMUR-2-AMANDA-SVANTE   
1 48269U 21034B   26171.16173717  .00027226  00000+0  81656-3 0  9996
2 48269  97.5757 249.5260 0002674 198.4440 161.6706 15.34444227281518
LEMUR-2-SPECIAL-K       
1 48273U 21034F   26171.21881132  .00143897  00000+0  14311-2 0  9990
2 48273  97.5647 258.2969 0004589 225.4698 134.6186 15.65252015282167
LEMUR-2-EMBRIONOVIS     
1 56970U 23084AQ  26171.39060161  .00011510  00000+0  31371-3 0  9992
2 56970  97.6298 315.7128 0007548 307.0596  52.9957 15.37617341168179
LEMUR-2-DEVERILL-M-T    
1 57391U 23100F   26171.35398220  .00022126  00000+0  55828-3 0  9993
2 57391  99.4467 211.0263 0006044  39.8665 320.3017 15.39883456161738
LEMUR-2-BASS            
1 58259U 23174D   26171.19315259  .00015183  00000+0  34382-3 0  9998
2 58259  97.3842 255.9477 0007906 152.9669 207.1992 15.43179548145820
LEMUR-2-JK0903EM1407    
1 58336U 23174CJ  26171.43252616  .00022133  00000+0  37116-3 0  9999
2 58336  97.3919 261.9940 0005581 111.1864 248.9985 15.51823058146236
LEMUR-2-MJR092620       
1 58340U 23174CN  26171.20298048  .00016613  00000+0  35405-3 0  9993
2 58340  97.3972 261.2875 0007082 108.7940 251.4078 15.44969470146115
LEMUR-2-NIMBUS2000      
1 58899U 24022A   26171.32758441  .00018389  00000+0  46020-3 0  9993
2 58899  97.4107  21.3676 0010413 106.4449 253.7942 15.40096437132750
LEMUR-2-VALHALLA        
1 58900U 24022B   26171.32447731  .00014349  00000+0  36376-3 0  9998
2 58900  97.4105  21.3537 0010895 102.7009 257.5455 15.39753326132758
LEMUR-2-CAEL            
1 58903U 24022E   26171.33164606  .00015224  00000+0  36973-3 0  9995
2 58903  97.4088  22.3023 0009237  88.4492 271.7812 15.41061994132825
LEMUR-2-JOHNNYTRUONG    
1 59146U 24043BA  26171.35612828  .00036258  00000+0  43743-3 0  9997
2 59146  97.5385 323.2558 0004896 166.6910 193.4477 15.60675325128532
LEMUR-2-TOMATOKECHUP    
1 60471U 24149D   26171.23424260  .00009043  00000+0  25956-3 0  9993
2 60471  97.3792 253.2890 0001698 170.5743 189.5533 15.36085472102634
LEMUR-2-STELLA          
1 60533U 24149BT  26171.19253807  .00009138  00000+0  53785-3 0  9990
2 60533  97.6729 253.6607 0001428  96.0742 264.0650 15.11860730100951
LEMUR-2-MARHISYAM       
1 60536U 24149BW  26171.43878483  .00008730  00000+0  52182-3 0  9990
2 60536  97.6879 254.3603 0003331 111.8781 248.2803 15.11315673100975
LEMUR-2-AHMED-ASRAR     
1 60576U 24149DN  26171.46979782  .00009485  00000+0  54422-3 0  9998
2 60576  97.6999 256.4972 0001494  33.6730 326.4595 15.12772261101066
LEMUR-2-LLOYD           
1 60577U 24149DP  26171.22464490  .00008514  00000+0  53795-3 0  9992
2 60577  97.6744 252.3554 0005125 131.3141 228.8530 15.09289702100852
LEMUR-2-SQUIRRELCOMM    
1 60578U 24149DQ  26170.71191900  .00005489  00000+0  36888-3 0  9991
2 60578  97.6706 251.6151 0006107  53.2688 306.9099 15.07173606100788
LEMUR-2-SIERRINI        
1 60579U 24149DR  26171.19809578  .00008878  00000+0  53511-3 0  9999
2 60579  97.6834 253.8036 0006030 156.6863 203.4641 15.10997152100918
LEMUR-2-WILSON          
1 62694U 25009CP  26171.17348258  .00001990  00000+0  18637-3 0  9994
2 62694  97.7027 249.5857 0004107  50.1741 309.9840 14.95177642 77802
LEMUR-2-STAR-FOX        
1 62696U 25009CR  26170.75664247  .00006185  00000+0  46976-3 0  9996
2 62696  97.6953 252.3469 0004084 105.6897 254.4778 15.02534850 77940
LEMUR-2-ARIANNA         
1 62699U 25009CU  26171.22118959  .00005922  00000+0  45010-3 0  9992
2 62699  97.6891 252.5802 0004519 109.8072 250.3640 15.02521287 78013
LEMUR-2-ALISIA          
1 62706U 25009DB  26171.46486470  .00005856  00000+0  44193-3 0  9990
2 62706  97.6936 253.6125 0002315 189.2638 170.8545 15.02804196100653
