OBJECT_NAME,OBJECT_ID,EPOCH,MEAN_MOTION,ECCENTRICITY,INCLINATION,RA_OF_ASC_NODE,ARG_OF_PERICENTER,MEAN_ANOMALY,EPHEMERIS_TYPE,CLASSIFICATION_TYPE,NORAD_CAT_ID,ELEMENT_SET_NO,REV_AT_EPOCH,BSTAR,MEAN_MOTION_DOT,MEAN_MOTION_DDOT
LEMUR-1,2014-033AL,2026-06-20T09:25:51.267072,14.85256873,.0049556,97.7881,321.1267,68.4036,292.2449,0,U,40044,999,64594,.18153E-3,.1537E-4,0
LEMUR-2-GREENBERG,2017-042N,2026-06-20T10:04:06.939264,15.31413026,.0008186,97.3826,352.0289,2.1847,357.9428,0,U,42837,999,48888,.46185E-3,.13958E-3,0
LEMUR-2-ANDIS,2017-042P,2026-06-20T10:35:36.736224,15.34952351,.0007828,97.3675,352.2452,0.5709,359.5541,0,U,42838,999,48895,.54159E-3,.18321E-3,0
LEMUR-2-MONSON,2017-042Q,2026-06-20T10:26:51.302400,15.28086186,.0005902,97.4086,352.0120,354.0746,6.0422,0,U,42839,999,48866,.46988E-3,.12809E-3,0
LEMUR-2-FURIAUS,2017-042R,2026-06-20T09:58:26.658048,15.30342715,.0007991,97.3779,349.9730,59.1132,301.0893,0,U,42840,999,48870,.50879E-3,.14883E-3,0
LEMUR-2-PETERG,2017-042S,2026-06-19T23:18:10.643328,15.33975062,.00029855,97.3995,356.0050,345.2222,14.8933,0,U,42841,999,48886,.55216744E-3,.18094E-3,0
LEMUR-2-DEMBITZ,2017-042T,2026-06-20T10:26:57.158592,15.30378926,.0006451,97.3831,353.0189,18.0066,342.1402,0,U,42842,999,48884,.49126E-3,.14378E-3,0
LEMUR-2-ZACHARY,2017-042W,2026-06-19T23:10:09.277824,15.50470213,.00026676,97.3597,2.6609,21.5962,338.5401,0,U,42845,999,48963,.70521304E-3,.40236E-3,0
LEMUR-2-AMANDA-SVANTE,2021-034B,2026-06-20T03:52:54.091488,15.34444227,.00026747,97.5757,249.5260,198.4440,161.6706,0,U,48269,999,28151,.81655772E-3,.27226E-3,0
LEMUR-2-SPECIAL-K,2021-034F,2026-06-20T05:15:05.298048,15.65252015,.0004589,97.5647,258.2969,225.4698,134.6186,0,U,48273,999,28216,.14311E-2,.143897E-2,0
LEMUR-2-EMBRIONOVIS,2023-084AQ,2026-06-20T09:22:27.979104,15.37617341,.0007548,97.6298,315.7128,307.0596,52.9957,0,U,56970,999,16817,.31371E-3,.1151E-3,0
LEMUR-2-DEVERILL-M-T,2023-100F,2026-06-20T08:29:44.062080,15.39883456,.0006044,99.4467,211.0263,39.8665,320.3017,0,U,57391,999,16173,.55828E-3,.22126E-3,0
LEMUR-2-BASS,2023-174D,2026-06-20T04:38:08.383776,15.43179548,.00079069,97.3842,255.9477,152.9669,207.1992,0,U,58259,999,14582,.34381865E-3,.15183E-3,0
LEMUR-2-JK0903EM1407,2023-174CJ,2026-06-20T10:22:50.260224,15.51823058,.0005581,97.3919,261.9940,111.1864,248.9985,0,U,58336,999,14623,.37116E-3,.22133E-3,0
LEMUR-2-MJR092620,2023-174CN,2026-06-20T04:52:17.513472,15.44969470,.0007082,97.3972,261.2875,108.7940,251.4078,0,U,58340,999,14611,.35404755E-3,.16613E-3,0
LEMUR-2-NIMBUS2000,2024-022A,2026-06-20T07:51:43.293024,15.40096437,.0010413,97.4107,21.3676,106.4449,253.7942,0,U,58899,999,13275,.4602E-3,.18389E-3,0
LEMUR-2-VALHALLA,2024-022B,2026-06-20T07:47:14.839584,15.39753326,.0010895,97.4105,21.3537,102.7009,257.5455,0,U,58900,999,13275,.36376E-3,.14349E-3,0
LEMUR-2-CAEL,2024-022E,2026-06-20T07:57:34.219584,15.41061994,.0009237,97.4088,22.3023,88.4492,271.7812,0,U,58903,999,13282,.36973E-3,.15224E-3,0
LEMUR-2-JOHNNYTRUONG,2024-043BA,2026-06-20T08:32:49.483392,15.60675325,.0004896,97.5385,323.2558,166.6910,193.4477,0,U,59146,999,12853,.43743E-3,.36258E-3,0
LEMUR-2-TOMATOKECHUP,2024-149D,2026-06-20T05:37:18.560640,15.36085472,.0001698,97.3792,253.2890,170.5743,189.5533,0,U,60471,999,10263,.25956E-3,.9043E-4,0
LEMUR-2-STELLA,2024-149BT,2026-06-20T04:37:15.289248,15.11860730,.00014284,97.6729,253.6607,96.0742,264.0650,0,U,60533,999,10095,.53784528E-3,.9138E-4,0
LEMUR-2-MARHISYAM,2024-149BW,2026-06-20T10:31:51.009312,15.11315673,.0003331,97.6879,254.3603,111.8781,248.2803,0,U,60536,999,10097,.52182E-3,.873E-4,0
LEMUR-2-AHMED-ASRAR,2024-149DN,2026-06-20T11:16:30.531648,15.12772261,.0001494,97.6999,256.4972,33.6730,326.4595,0,U,60576,999,10106,.54422E-3,.9485E-4,0
LEMUR-2-LLOYD,2024-149DP,2026-06-20T05:23:29.319360,15.09289702,.0005125,97.6744,252.3554,131.3141,228.8530,0,U,60577,999,10085,.53795E-3,.8514E-4,0
LEMUR-2-SQUIRRELCOMM,2024-149DQ,2026-06-19T17:05:09.801600,15.07173606,.00061077,97.6706,251.6151,53.2688,306.9099,0,U,60578,999,10078,.36888125E-3,.5489E-4,0
LEMUR-2-SIERRINI,2024-149DR,2026-06-20T04:45:15.475392,15.10997152,.00060301,97.6834,253.8036,156.6863,203.4641,0,U,60579,999,10091,.53510735E-3,.8878E-4,0
LEMUR-2-WILSON,2025-009CP,2026-06-20T04:09:48.894912,14.95177642,.00041074,97.7027,249.5857,50.1741,309.9840,0,U,62694,999,7780,.18637045E-3,.199E-4,0
LEMUR-2-STAR-FOX,2025-009CR,2026-06-19T18:09:33.909408,15.02534850,.00040842,97.6953,252.3469,105.6897,254.4778,0,U,62696,999,7794,.46976283E-3,.6185E-4,0
LEMUR-2-ARIANNA,2025-009CU,2026-06-20T05:18:30.780576,15.02521287,.0004519,97.6891,252.5802,109.8072,250.3640,0,U,62699,999,7801,.4501E-3,.5922E-4,0
LEMUR-2-ALISIA,2025-009DB,2026-06-20T11:09:24.310080,15.02804196,.0002315,97.6936,253.6125,189.2638,170.8545,0,U,62706,999,10065,.44193E-3,.5856E-4,0
